IRIDIUM 33 DEB          
1 36017U 97051UY  16131.16592745  .00010821  00000-0  17132-2 0  9998
2 36017  86.3733  71.2986 0015928 325.9804  99.2599 14.72079196354425
IRIDIUM 33 DEB          
1 36019U 97051VA  16135.62173762  .00002093  00000-0  50903-3 0  9995
2 36019  86.3958  80.9215 0008930 137.4007 344.2886 14.52373451354414
IRIDIUM 33 DEB          
1 36021U 97051VC  16135.46233380  .00004539  00000-0  17067-2 0  9993
2 36021  86.4231 141.6761 0125861  17.5474 343.0006 14.27066406349698
IRIDIUM 33 DEB          
1 36023U 97051VE  16136.13327632  .00003628  00000-0  94199-3 0  9994
2 36023  86.3416  78.3192 0031410  76.7491 283.7214 14.49195641354156
IRIDIUM 33 DEB          
1 36025U 97051VG  16136.79494733  .00007014  00000-0  18183-2 0  9996
2 36025  86.5654 164.0422 0070049 185.8896 174.1493 14.48197096354703
IRIDIUM 33 DEB          
1 36028U 97051VK  16135.49865819  .00001404  00000-0  33815-3 0  9999
2 36028  86.3401  56.5866 0037490  62.2269 298.2730 14.52145598361655
IRIDIUM 33 DEB          
1 36081U 97051VN  16133.12323663  .00003083  00000-0  97139-3 0  9996
2 36081  86.2406  65.9758 0063404 235.6679 123.8510 14.38944144350191
IRIDIUM 33 DEB          
1 36083U 97051VQ  16131.14239028  .00000626  00000-0  21409-3 0  9996
2 36083  86.3463  84.8765 0029872 169.7652 190.4159 14.34506622352589
IRIDIUM 33 DEB          
1 36390U 97051VU  16137.50519929  .00001644  00000-0  42147-3 0  9997
2 36390  86.3073  48.2983 0047930  59.4024 301.1894 14.49057099375156
IRIDIUM 33 DEB          
1 36482U 97051VY  16131.56018203  .00002124  00000-0  53077-3 0  9996
2 36482  86.3459  64.5434 0022202 109.8959 250.4641 14.50975205357303
IRIDIUM 33 DEB          
1 36483U 97051VZ  16136.13284641  .00000565  00000-0  18647-3 0  9997
2 36483  86.3831  90.8753 0012190  94.5804 265.6786 14.36326939355830
IRIDIUM 33 DEB          
1 36485U 97051WB  16136.31486893  .00004028  00000-0  15754-2 0  9995
2 36485  86.4397 151.9565 0143072  51.7537 309.6427 14.23854587335494
IRIDIUM 33 DEB          
1 36486U 97051WC  16135.50002039  .00003553  00000-0  75632-3 0  9996
2 36486  86.3571  65.8572 0017771  50.8827 309.3959 14.58676397375295
IRIDIUM 33 DEB          
1 36487U 97051WD  16136.80462865  .00002486  00000-0  12888-2 0  9995
2 36487  86.3797 155.3981 0168237 230.9392 127.6719 14.07504186335333
IRIDIUM 33 DEB          
1 36488U 97051WE  16133.63480821  .00022857  00000-0  25174-2 0  9992
2 36488  86.4360  94.4403 0008959 312.8701  47.2273 14.87592052350045
IRIDIUM 33 DEB          
1 36489U 97051WF  16131.61880314  .00011222  00000-0  17004-2 0  9997
2 36489  86.4184  90.8290 0011951   8.7550 351.3874 14.74022340369234
IRIDIUM 33 DEB          
1 36490U 97051WG  16136.11702424  .00001232  00000-0  35103-3 0  9995
2 36490  86.3782  81.2260 0001840 107.5010 252.6393 14.44544381357557
IRIDIUM 33 DEB          
1 36492U 97051WJ  16137.13312471  .00004090  00000-0  98751-3 0  9992
2 36492  86.4254  96.0314 0013156 335.1627  24.8944 14.52917253366095
IRIDIUM 33 DEB          
1 36493U 97051WK  16136.12128189  .00001035  00000-0  30613-3 0  9991
2 36493  86.3654  79.1563 0018838 109.8972 250.4260 14.42438806365030
IRIDIUM 33 DEB          
1 36495U 97051WM  16135.61589880  .00014665  00000-0  20729-2 0  9994
2 36495  86.4009  87.8443 0016333 358.5692   1.5477 14.76964804340037
IRIDIUM 33 DEB          
1 36497U 97051WP  16137.43930763  .00001595  00000-0  53392-3 0  9999
2 36497  86.1639  28.3114 0076338 103.2818  22.1702 14.35121797357686
IRIDIUM 33 DEB          
1 36563U 97051WS  16136.10691623  .00006388  00000-0  11768-2 0  9990
2 36563  86.3576  72.4872 0031399  60.9036 299.5315 14.65107476355850
IRIDIUM 33 DEB          
1 36566U 97051WV  16135.85512844  .00003867  00000-0  18435-2 0  9998
2 36566  86.4333 170.8831 0177059 230.1792 128.3696 14.11211115348138
IRIDIUM 33 DEB          
1 36568U 97051WX  16136.66485785  .00014212  00000-0  87170-3 0  9992
2 36568  86.2913  25.4845 0018162 121.2472 239.0547 15.09891233354939
IRIDIUM 33 DEB          
1 36642U 97051XC  16137.14684452  .00006530  00000-0  13909-2 0  9993
2 36642  86.3722  80.6629 0023342 334.1477  25.8563 14.58685460357220
IRIDIUM 33 DEB          
1 37136U 97051XG  16134.09132131  .00000639  00000-0  28389-3 0  9998
2 37136  86.1779  59.0561 0086510 349.2808  10.6532 14.19495613147631
IRIDIUM 33 DEB          
1 37548U 97051XH  16136.14333457  .00001024  00000-0  35787-3 0  9996
2 37548  86.3573  90.9138 0031818 147.7827 212.5321 14.34006109356343
IRIDIUM 33 DEB          
1 37549U 97051XJ  16136.17667838  .00005496  00000-0  13921-2 0  9995
2 37549  86.3854 102.7694 0049828 113.3873 247.2583 14.49992637355840
IRIDIUM 33 DEB          
1 37550U 97051XK  16137.17245468  .00001119  00000-0  32818-3 0  9994
2 37550  86.3856  84.4479 0001228  42.1284 318.0011 14.43074222357107
IRIDIUM 33 DEB          
1 37554U 97051XP  16137.01981065  .00218582  00000-0  80808-2 0  9996
2 37554  86.3650  54.7199 0021554  12.0103 348.1653 15.26584656323155
IRIDIUM 33 DEB          
1 37555U 97051XQ  16134.95563674  .00005952  00000-0  14728-2 0  9992
2 37555  86.4647 122.5793 0033396 131.9953 228.4105 14.51523751164317
IRIDIUM 33 DEB          
1 37557U 97051XS  16136.32685847  .00004180  00000-0  16718-2 0  9997
2 37557  86.3880 140.5283 0129022 100.1848 261.3923 14.23733821349762
IRIDIUM 33 DEB          
1 37558U 97051XT  16136.17702775  .00002620  00000-0  70903-3 0  9995
2 37558  86.4027 101.7721 0086833 172.9830 187.2611 14.45159202326341
IRIDIUM 33 DEB          
1 37560U 97051XV  16128.77467684  .00005823  00000-0  19981-2 0  9998
2 37560  86.3896 132.6754 0103374  13.8064 110.7950 14.33016085326905
IRIDIUM 33 DEB          
1 37562U 97051XX  16136.22129813  .00001063  00000-0  34408-3 0  9992
2 37562  86.3812  91.4534 0032499 136.5440 290.5498 14.37855733359076
IRIDIUM 33 DEB          
1 37564U 97051XZ  16137.24687814  .00257778  00000-0  65987-2 0  9998
2 37564  86.3435  55.4807 0011386 106.7949 253.4554 15.38343971347871
IRIDIUM 33 DEB          
1 37565U 97051YA  16136.09420288  .00000596  00000-0  17749-3 0  9999
2 37565  86.3544  73.0334 0015792 137.9647 280.8201 14.41428030348068
IRIDIUM 33 DEB          
1 37566U 97051YB  16135.64418767  .00025452  00000-0  32577-2 0  9992
2 37566  86.4492 105.4035 0028598  98.3484 262.0982 14.80929047333448
IRIDIUM 33 DEB          
1 38016U 97051YC  16135.36337866  .00012847  00000-0  23191-2 0  9998
2 38016  86.4018 102.0540 0042343  80.8157  72.1720 14.65791155257562
IRIDIUM 33 DEB          
1 38017U 97051YD  16133.02662390  .00002230  00000-0  12658-2 0  9994
2 38017  86.3592 155.8675 0187730 304.1635  54.1864 14.01133159276280
IRIDIUM 33 DEB          
1 38018U 97051YE  16136.97729403  .00035776  00000-0  29111-2 0  9994
2 38018  86.2620  28.7695 0006381   8.1663 351.9671 14.99370815330695
IRIDIUM 33 DEB          
1 38019U 97051YF  16135.24381481  .00005677  00000-0  17158-2 0  9999
2 38019  86.4015 127.3627 0087823 311.2869  48.0790 14.40041828154801
IRIDIUM 33 DEB          
1 38020U 97051YG  16136.28975589  .00003641  00000-0  16901-2 0  9998
2 38020  86.3176 136.8003 0185529 233.8697 124.5194 14.11811203347052
IRIDIUM 33 DEB          
1 38022U 97051YJ  16137.12682808  .00000737  00000-0  28970-3 0  9996
2 38022  86.2794  77.5611 0056040 213.3538 146.4119 14.27118918370031
IRIDIUM 33 DEB          
1 38023U 97051YK  16136.74830997  .00007221  00000-0  24334-2 0  9992
2 38023  86.4205 143.7487 0108242  26.1006 334.5590 14.33641011339805
IRIDIUM 33 DEB          
1 38024U 97051YL  16136.32744910  .00004605  00000-0  17453-2 0  9993
2 38024  86.4787 160.0293 0130944  47.4779 313.7382 14.26323640348732
IRIDIUM 33 DEB          
1 38025U 97051YM  16135.89124137  .00004197  00000-0  18696-2 0  9994
2 38025  86.5010 183.2239 0180065 200.2825 287.4326 14.14384896363032
IRIDIUM 33 DEB          
1 38028U 97051YQ  16135.08764598  .00000383  00000-0  11596-3 0  9995
2 38028  86.3300  67.6381 0030080 137.5983 222.7547 14.39448730327230
IRIDIUM 33 DEB          
1 38030U 97051YS  16137.22532030  .00006985  00000-0  18468-2 0  9998
2 38030  86.3708 117.8566 0081818 268.3225  90.8605 14.46748142278495
IRIDIUM 33 DEB          
1 38033U 97051YV  16132.14073555  .00006967  00000-0  92722-3 0  9995
2 38033  86.2805  27.0908 0023675 333.4026  26.5978 14.79373688738155
IRIDIUM 33 DEB          
1 38034U 97051YW  16134.48413515  .00048209  00000-0  23864-2 0  9994
2 38034  86.3281  39.3257 0007222 346.1250 139.6176 15.17567944345724
IRIDIUM 33 DEB          
1 38224U 97051YY  16136.27681402  .00006422  00000-0  22417-2 0  9990
2 38224  86.3893 131.4813 0098543  14.8923 345.5136 14.32450563342105
IRIDIUM 33 DEB          
1 38225U 97051YZ  16137.35080127  .00002562  00000-0  13908-2 0  9994
2 38225  86.3606 159.0054 0200529 308.7310 109.6284 14.02380450262002
IRIDIUM 33 DEB          
1 38226U 97051ZA  16131.32907987  .00007762  00000-0  19359-2 0  9991
2 38226  86.3808  89.5325 0013175  80.8221 279.4474 14.51474338355545
IRIDIUM 33 DEB          
1 38227U 97051ZB  16131.09371903  .00002589  00000-0  67347-3 0  9992
2 38227  86.3161  61.2320 0011391  96.8535 263.3965 14.49275421353479
IRIDIUM 33 DEB          
1 38228U 97051ZC  16135.64143698  .00000333  00000-0  13764-3 0  9995
2 38228  86.2966  86.7816 0064472 242.8146 239.0700 14.22747273353560
IRIDIUM 33 DEB          
1 38229U 97051ZD  16136.82734672  .00001821  00000-0  11126-2 0  9997
2 38229  86.3777 178.7484 0238103  34.2526 327.3745 13.92375670327008
IRIDIUM 33 DEB          
1 38231U 97051ZF  16131.08281312  .00016124  00000-0  28237-2 0  9994
2 38231  86.2507  56.1469 0049608  90.9269 330.3261 14.66910388356312
IRIDIUM 33 DEB          
1 38232U 97051ZG  16135.33155833  .00004090  00000-0  12952-2 0  9991
2 38232  86.4641 148.7311 0100812 321.0908  38.3062 14.37033977359608
